DMSP 5D-3 F16 (USA 172) 
1 28054U 03048A   26233.95550687  .00000021  00000+0  34909-4 0  9996
2 28054  98.9883 258.2144 0006375 329.0625 122.7428 14.14487163178786
METEOSAT-9 (MSG-2)      
1 28912U 05049B   26233.13485712  .00000119  00000+0  00000+0 0  9996
2 28912   9.5045  53.5077 0002907   9.8049   0.4454  1.00277199  7653
DMSP 5D-3 F17 (USA 191) 
1 29522U 06050A   26233.93102708  .00000053  00000+0  49753-4 0  9996
2 29522  98.7414 239.1650 0009178 223.7173 136.3274 14.15001610 21728
FENGYUN 3A              
1 32958U 08026A   26233.80815162  .00000051  00000+0  44901-4 0  9997
2 32958  98.6902 173.4199 0007795 304.1308  55.9129 14.19582736944716
EWS-G3 (GOES 14)        
1 35491U 09033A   26233.85851558 -.00000275  00000+0  00000+0 0  9991
2 35491   1.8536  82.1769 0002234  64.1377 233.1085  1.00078950  7244
DMSP 5D-3 F18 (USA 210) 
1 35951U 09057A   26233.90615786  .00000234  00000+0  14432-3 0  9997
2 35951  98.9106 214.5529 0012219  66.5683 293.6774 14.14930397868882
EWS-G2 (GOES 15)        
1 36411U 10008A   26233.78169706  .00000018  00000+0  00000+0 0  9991
2 36411   1.4534  82.0427 0005644  66.2948 166.5179  1.00274631 60297
COMS 1                  
1 36744U 10032A   26233.80148866 -.00000199  00000+0  00000+0 0  9995
2 36744   4.9686  74.5404 0011188  18.0749 338.3973  0.99170750 51731
FENGYUN 3B              
1 37214U 10059A   26233.93847529 -.00000218  00000+0 -89485-4 0  9995
2 37214  98.9576 280.2153 0022196   3.2975  98.9771 14.14851701816727
SUOMI NPP               
1 37849U 11061A   26233.96280519  .00000050  00000+0  44960-4 0  9997
2 37849  98.7973 174.3960 0002587 116.5233 243.6208 14.19528976767770
METEOSAT-10 (MSG-3)     
1 38552U 12035B   26233.83866882 -.00000009  00000+0  00000+0 0  9997
2 38552   4.8225  60.6615 0001059  73.5029 138.2254  1.00267409 51517
METOP-B                 
1 38771U 12049A   26233.93447555  .00000052  00000+0  43667-4 0  9996
2 38771  98.6453 284.1051 0003046 136.5579 223.5839 14.21454265722606
INSAT-3D                
1 39216U 13038B   26233.79299528 -.00000342  00000+0  00000+0 0  9991
2 39216   2.0896  81.6684 0001316  82.2186 221.2208  1.00272141 47735
FENGYUN 3C              
1 39260U 13052A   26233.91127890  .00000060  00000+0  51539-4 0  9996
2 39260  98.5058 204.7898 0014322 189.7296 170.3604 14.15767284667868
METEOR-M 2              
1 40069U 14037A   26233.95989853  .00000000  00000+0  19098-4 0  9996
2 40069  98.5187 207.3903 0005192 194.6107 165.4921 14.21477992628660
HIMAWARI-8              
1 40267U 14060A   26233.79516196 -.00000278  00000+0  00000+0 0  9996
2 40267   0.0339 292.8222 0001054 250.3261 213.8457  1.00273152 43415
FENGYUN 2G              
1 40367U 14090A   26233.92967361 -.00000305  00000+0  00000+0 0  9990
2 40367   5.8001  71.9968 0004061 169.3140 163.1385  1.00265608 42653
METEOSAT-11 (MSG-4)     
1 40732U 15034A   26233.84048882  .00000059  00000+0  00000+0 0  9999
2 40732   3.3609  70.6509 0000759  52.0484 159.4930  1.00265537  7872
ELEKTRO-L 2             
1 41105U 15074A   26233.83572214 -.00000122  00000+0  00000+0 0  9990
2 41105   6.8545  69.6949 0000968 192.3559 354.4694  1.00271528 39161
SENTINEL-3A             
1 41335U 16011A   26233.92821785  .00000051  00000+0  39153-4 0  9993
2 41335  98.6200 300.3510 0000985  92.3077 267.8216 14.26738703547431
INSAT-3DR               
1 41752U 16054A   26233.93219616 -.00000079  00000+0  00000+0 0  9993
2 41752   0.0637  94.6960 0010813 170.8582 114.2856  1.00272452 36475
HIMAWARI-9              
1 41836U 16064A   26233.79524862 -.00000277  00000+0  00000+0 0  9993
2 41836   0.0192 217.9121 0001088 307.6027 231.6443  1.00270953 35863
GOES 16                 
1 41866U 16071A   26233.46146110 -.00000093  00000+0  00000+0 0  9990
2 41866   0.4944  85.0190 0001207 102.5999 203.5539  1.00273205 35753
FENGYUN 4A              
1 41882U 16077A   26233.79186860 -.00000361  00000+0  00000+0 0  9994
2 41882   2.4837  79.4669 0007427 164.7158 134.6376  1.00265286 35583
CYGFM05                 
1 41884U 16078A   26233.98228179  .00025651  00000+0  31293-3 0  9998
2 41884  34.9549 183.9768 0003953  42.1756 317.9273 15.59450037539028
CYGFM04                 
1 41885U 16078B   26233.92133222  .00034179  00000+0  33254-3 0  9991
2 41885  34.9306 148.4704 0002184 111.0792 249.0169 15.65202866539297
CYGFM02                 
1 41886U 16078C   26233.90906970  .00042071  00000+0  35138-3 0  9991
2 41886  34.9388 140.9342 0002485 115.2707 244.8279 15.68923669539489
CYGFM01                 
1 41887U 16078D   26233.94015618  .00026191  00000+0  31009-3 0  9994
2 41887  34.9378 184.7458 0003853  33.1357 326.9609 15.60228190538973
CYGFM08                 
1 41888U 16078E   26233.90443385  .00030940  00000+0  32345-3 0  9998
2 41888  34.9415 162.6671 0004043  81.1237 278.9947 15.63402443539251
CYGFM07                 
1 41890U 16078G   26233.92302143  .00030916  00000+0  32179-3 0  9997
2 41890  34.9430 150.8233 0002712 106.4203 253.6821 15.63519135539280
CYGFM03                 
1 41891U 16078H   26233.89460971  .00032017  00000+0  33344-3 0  9997
2 41891  34.9386 152.9345 0002313  77.0806 283.0179 15.63500180539257
FENGYUN 3D              
1 43010U 17072A   26233.97053773  .00000036  00000+0  38788-4 0  9998
2 43010  99.0200 209.6023 0000921 174.7225 185.3960 14.19750944454326
